OBJECT_NAME,OBJECT_ID,EPOCH,MEAN_MOTION,ECCENTRICITY,INCLINATION,RA_OF_ASC_NODE,ARG_OF_PERICENTER,MEAN_ANOMALY,EPHEMERIS_TYPE,CLASSIFICATION_TYPE,NORAD_CAT_ID,ELEMENT_SET_NO,REV_AT_EPOCH,BSTAR,MEAN_MOTION_DOT,MEAN_MOTION_DDOT
STARLINK-35691,2025-257AA,2026-07-16T18:53:39.670080,15.34403869,.0000774,53.1611,334.9157,62.0295,298.0786,0,U,66404,999,3953,.63195E-3,.21038E-3,0
STARLINK-35683,2025-257AB,2026-07-16T14:45:35.980128,15.34401140,.0000826,53.1606,335.9719,99.7399,260.3697,0,U,66405,999,3943,.53899E-3,.17878E-3,0
STARLINK-34840,2025-257AC,2026-07-16T18:44:33.947808,15.34403493,.0000878,53.1612,334.8665,78.4456,281.6645,0,U,66406,999,3947,.44554E-3,.14708E-3,0
STARLINK-35686,2025-257AD,2026-07-16T18:41:32.379072,15.34411886,.0001036,53.1618,334.8595,71.7820,288.3295,0,U,66407,999,3953,.69584E-3,.23215E-3,0
STARLINK-35679,2025-257AE,2026-07-16T18:47:35.875968,15.34410977,.0001037,53.1617,334.8835,65.8997,294.2114,0,U,66408,999,3953,.56436E-3,.18746E-3,0
STARLINK-35617,2025-259A,2026-07-16T14:19:38.946720,15.27591604,.0001449,43.0001,266.5617,277.8190,82.2497,0,U,66422,999,3920,.27675E-3,.7364E-4,0
STARLINK-35618,2025-259B,2026-07-16T14:12:15.057216,15.27589847,.0001508,43.0013,266.5218,267.8668,92.2011,0,U,66423,999,3920,.27035E-3,.7187E-4,0
STARLINK-35588,2025-259C,2026-07-16T12:34:23.035872,15.27595215,.0001953,43.0037,266.8722,270.7235,89.3393,0,U,66424,999,3919,.37792E-3,.10156E-3,0
STARLINK-35555,2025-259D,2026-07-16T12:28:49.994112,15.27599092,.0002872,43.0030,266.8422,291.8540,68.2006,0,U,66425,999,3919,.3677E-3,.9876E-4,0
STARLINK-35589,2025-259E,2026-07-16T12:25:07.088160,15.27604560,.0003436,43.0090,266.8268,294.9845,65.0649,0,U,66426,999,3919,.40094E-3,.10796E-3,0
STARLINK-35611,2025-259F,2026-07-16T13:53:44.347200,15.27595789,.0001963,43.0034,266.4212,286.1895,73.8740,0,U,66427,999,3920,.33154E-3,.8876E-4,0
STARLINK-35610,2025-259G,2026-07-16T04:23:15.117504,15.27586163,.00011022,43.0007,268.6022,239.1819,120.8924,0,U,66428,999,3914,.2402951E-3,.6357E-4,0
STARLINK-35533,2025-259H,2026-07-16T13:42:38.303424,15.27587372,.0001404,43.0000,266.3581,262.5686,97.5006,0,U,66429,999,3920,.19968E-3,.5238E-4,0
STARLINK-35470,2025-259J,2026-07-16T13:37:05.239200,15.27589733,.000145,42.9999,266.3284,275.7206,84.3481,0,U,66430,999,3920,.26051E-3,.6915E-4,0
STARLINK-35439,2025-259K,2026-07-16T11:59:13.775136,15.27587793,.0001145,42.9997,266.6775,260.0774,99.9949,0,U,66431,999,3919,.21158E-3,.5566E-4,0
STARLINK-35446,2025-259L,2026-07-16T11:57:22.751136,15.27590605,.0001369,43.0000,266.6649,260.4424,99.6273,0,U,66432,999,3919,.24151E-3,.6392E-4,0
STARLINK-35457,2025-259M,2026-07-16T11:53:40.725600,15.27592823,.0001489,42.9992,266.6468,279.5575,80.5108,0,U,66433,999,3919,.28282E-3,.7532E-4,0
STARLINK-35389,2025-259N,2026-07-16T13:25:59.064096,15.27593356,.0001572,42.9993,266.2672,283.1520,76.9156,0,U,66434,999,3920,.28816E-3,.7679E-4,0
STARLINK-35502,2025-259P,2026-07-16T13:16:44.281056,15.27593902,.0001356,42.9995,266.2183,271.9361,88.1335,0,U,66435,999,3920,.32021E-3,.8563E-4,0
STARLINK-35501,2025-259Q,2026-07-16T14:58:17.176224,15.27594703,.000167,42.9998,265.8872,276.8287,83.2375,0,U,66436,999,3921,.28117E-3,.7486E-4,0
STARLINK-35474,2025-259R,2026-07-16T14:14:05.915328,15.27585669,.0002062,43.0024,266.5262,284.6860,75.3763,0,U,66437,999,3920,.25968E-3,.6891E-4,0
STARLINK-34681,2025-259S,2026-07-16T06:14:03.575904,15.27586432,.0001477,42.9988,268.3172,255.7624,104.3063,0,U,66438,999,3904,.24744E-3,.6554E-4,0
STARLINK-35327,2025-259T,2026-07-16T05:24:08.265024,15.27567389,.00024838,42.9957,268.0507,278.1739,81.8831,0,U,66439,999,3915,.1840167E-3,.4803E-4,0
STARLINK-35405,2025-259U,2026-07-16T12:23:16.872864,15.27602821,.0003506,43.0065,266.8068,302.7804,57.2709,0,U,66440,999,3919,.49353E-3,.13354E-3,0
STARLINK-35426,2025-259V,2026-07-16T15:20:29.471136,15.27599754,.0002239,43.0059,266.0076,290.7299,69.3313,0,U,66441,999,3921,.41726E-3,.11244E-3,0
STARLINK-34724,2025-259W,2026-07-16T11:37:14.496384,15.27585850,.0001872,42.9955,267.4172,288.1390,71.9258,0,U,66442,999,3918,.18659E-3,.4877E-4,0
STARLINK-35219,2025-259X,2026-07-16T13:05:50.544096,15.27589152,.0001624,43.0004,267.0237,280.8125,79.2543,0,U,66443,999,3908,.31787E-3,.8498E-4,0
STARLINK-35360,2025-259Y,2026-07-16T13:20:25.992096,15.27604114,.0001438,42.9993,266.2317,280.7785,79.2905,0,U,66444,999,3920,.28661E-3,.7639E-4,0
STARLINK-34698,2025-259Z,2026-07-16T11:26:08.107872,15.27563583,.0001442,43.0016,267.3649,273.2363,86.8324,0,U,66445,999,3907,.36097E-3,.9679E-4,0
STARLINK-34986,2025-259AA,2026-07-16T12:51:02.386656,15.27589555,.000199,42.9993,266.9467,280.4160,79.6467,0,U,66446,999,3919,.27201E-3,.7233E-4,0
