STARLINK-35691          
1 66404U 25257AA  26197.78726470  .00021038  00000+0  63195-3 0  9997
2 66404  53.1611 334.9157 0000774  62.0295 298.0786 15.34403869 39536
STARLINK-35683          
1 66405U 25257AB  26197.61499977  .00017878  00000+0  53899-3 0  9996
2 66405  53.1606 335.9719 0000826  99.7399 260.3697 15.34401140 39438
STARLINK-34840          
1 66406U 25257AC  26197.78094847  .00014708  00000+0  44554-3 0  9999
2 66406  53.1612 334.8665 0000878  78.4456 281.6645 15.34403493 39475
STARLINK-35686          
1 66407U 25257AD  26197.77884698  .00023215  00000+0  69584-3 0  9993
2 66407  53.1618 334.8595 0001036  71.7820 288.3295 15.34411886 39539
STARLINK-35679          
1 66408U 25257AE  26197.78305412  .00018746  00000+0  56436-3 0  9992
2 66408  53.1617 334.8835 0001037  65.8997 294.2114 15.34410977 39532
STARLINK-35617          
1 66422U 25259A   26197.59697855  .00007364  00000+0  27675-3 0  9991
2 66422  43.0001 266.5617 0001449 277.8190  82.2497 15.27591604 39201
STARLINK-35618          
1 66423U 25259B   26197.59184094  .00007187  00000+0  27035-3 0  9991
2 66423  43.0013 266.5218 0001508 267.8668  92.2011 15.27589847 39206
STARLINK-35588          
1 66424U 25259C   26197.52387773  .00010156  00000+0  37792-3 0  9995
2 66424  43.0037 266.8722 0001953 270.7235  89.3393 15.27595215 39197
STARLINK-35555          
1 66425U 25259D   26197.52002308  .00009876  00000+0  36770-3 0  9996
2 66425  43.0030 266.8422 0002872 291.8540  68.2006 15.27599092 39196
STARLINK-35589          
1 66426U 25259E   26197.51744315  .00010796  00000+0  40094-3 0  9994
2 66426  43.0090 266.8268 0003436 294.9845  65.0649 15.27604560 39195
STARLINK-35611          
1 66427U 25259F   26197.57898550  .00008876  00000+0  33154-3 0  9997
2 66427  43.0034 266.4212 0001963 286.1895  73.8740 15.27595789 39203
STARLINK-35610          
1 66428U 25259G   26197.18281386  .00006357  00000+0  24030-3 0  9993
2 66428  43.0007 268.6022 0001102 239.1819 120.8924 15.27586163 39142
STARLINK-35533          
1 66429U 25259H   26197.57127666  .00005238  00000+0  19968-3 0  9998
2 66429  43.0000 266.3581 0001404 262.5686  97.5006 15.27587372 39209
STARLINK-35470          
1 66430U 25259J   26197.56742175  .00006915  00000+0  26051-3 0  9991
2 66430  42.9999 266.3284 0001450 275.7206  84.3481 15.27589733 39205
STARLINK-35439          
1 66431U 25259K   26197.49946499  .00005566  00000+0  21158-3 0  9993
2 66431  42.9997 266.6775 0001145 260.0774  99.9949 15.27587793 39193
STARLINK-35446          
1 66432U 25259L   26197.49817999  .00006392  00000+0  24151-3 0  9990
2 66432  43.0000 266.6649 0001369 260.4424  99.6273 15.27590605 39198
STARLINK-35457          
1 66433U 25259M   26197.49561025  .00007532  00000+0  28282-3 0  9993
2 66433  42.9992 266.6468 0001489 279.5575  80.5108 15.27592823 39197
STARLINK-35389          
1 66434U 25259N   26197.55971139  .00007679  00000+0  28816-3 0  9997
2 66434  42.9993 266.2672 0001572 283.1520  76.9156 15.27593356 39202
STARLINK-35502          
1 66435U 25259P   26197.55329029  .00008563  00000+0  32021-3 0  9999
2 66435  42.9995 266.2183 0001356 271.9361  88.1335 15.27593902 39201
STARLINK-35501          
1 66436U 25259Q   26197.62380991  .00007486  00000+0  28117-3 0  9997
2 66436  42.9998 265.8872 0001670 276.8287  83.2375 15.27594703 39216
STARLINK-35474          
1 66437U 25259R   26197.59312402  .00006891  00000+0  25968-3 0  9996
2 66437  43.0024 266.5262 0002062 284.6860  75.3763 15.27585669 39203
STARLINK-34681          
1 66438U 25259S   26197.25976361  .00006554  00000+0  24744-3 0  9997
2 66438  42.9988 268.3172 0001477 255.7624 104.3063 15.27586432 39044
STARLINK-35327          
1 66439U 25259T   26197.22509566  .00004803  00000+0  18402-3 0  9993
2 66439  42.9957 268.0507 0002483 278.1739  81.8831 15.27567389 39158
STARLINK-35405          
1 66440U 25259U   26197.51616751  .00013354  00000+0  49353-3 0  9992
2 66440  43.0065 266.8068 0003506 302.7804  57.2709 15.27602821 39190
STARLINK-35426          
1 66441U 25259V   26197.63922999  .00011244  00000+0  41726-3 0  9992
2 66441  43.0059 266.0076 0002239 290.7299  69.3313 15.27599754 39219
STARLINK-34724          
1 66442U 25259W   26197.48419556  .00004877  00000+0  18659-3 0  9999
2 66442  42.9955 267.4172 0001872 288.1390  71.9258 15.27585850 39185
STARLINK-35219          
1 66443U 25259X   26197.54572389  .00008498  00000+0  31787-3 0  9991
2 66443  43.0004 267.0237 0001624 280.8125  79.2543 15.27589152 39087
STARLINK-35360          
1 66444U 25259Y   26197.55585639  .00007639  00000+0  28661-3 0  9998
2 66444  42.9993 266.2317 0001438 280.7785  79.2905 15.27604114 39209
STARLINK-34698          
1 66445U 25259Z   26197.47648273  .00009679  00000+0  36097-3 0  9992
2 66445  43.0016 267.3649 0001442 273.2363  86.8324 15.27563583 39070
STARLINK-34986          
1 66446U 25259AA  26197.53544429  .00007233  00000+0  27201-3 0  9999
2 66446  42.9993 266.9467 0001990 280.4160  79.6467 15.27589555 39197
